{
  "norad_id": 55343,
  "name": "STARLINK-5661",
  "history": [
    {
      "epoch": "2026-03-28T22:00:01.999584Z",
      "apogee_km": 491.79243686001155,
      "perigee_km": 488.89778375944115,
      "latitude_deg": -23.031276526698264,
      "longitude_deg": 10.775727628433144,
      "height_km": 494.8442867826369,
      "semi_major_axis_km": 6868.482110309726,
      "eccentricity": 0.00021072,
      "inclination_deg": 43.0,
      "raan_deg": 194.0744,
      "arg_perigee_deg": 276.4661,
      "mean_anomaly_deg": 48.7791,
      "mean_motion_rev_day": 15.25146649
    },
    {
      "epoch": "2026-03-29T04:00:01.999584Z",
      "apogee_km": 490.94519087166464,
      "perigee_km": 488.25715815016156,
      "latitude_deg": -42.294773630939424,
      "longitude_deg": -157.92979971241397,
      "height_km": 501.25194033333156,
      "semi_major_axis_km": 6867.738174510913,
      "eccentricity": 0.0001957,
      "inclination_deg": 42.9991,
      "raan_deg": 192.6648,
      "arg_perigee_deg": 261.458,
      "mean_anomaly_deg": 358.1815,
      "mean_motion_rev_day": 15.25394469
    },
    {
      "epoch": "2026-03-30T04:00:01.999584Z",
      "apogee_km": 487.22099160177095,
      "perigee_km": 484.6373570937467,
      "latitude_deg": -0.11365790132523265,
      "longitude_deg": -60.659266095349864,
      "height_km": 485.75177812080165,
      "semi_major_axis_km": 6864.0661743477585,
      "eccentricity": 0.0001882,
      "inclination_deg": 42.9995,
      "raan_deg": 187.0326,
      "arg_perigee_deg": 268.4738,
      "mean_anomaly_deg": 91.4241,
      "mean_motion_rev_day": 15.2661867
    },
    {
      "epoch": "2026-03-30T06:00:02.000160Z",
      "apogee_km": 487.2469802551368,
      "perigee_km": 484.4392005593545,
      "latitude_deg": 42.58243470599661,
      "longitude_deg": 10.375816525769057,
      "height_km": 490.2681683591105,
      "semi_major_axis_km": 6863.980090407245,
      "eccentricity": 0.00020453,
      "inclination_deg": 43.0003,
      "raan_deg": 186.5607,
      "arg_perigee_deg": 282.9303,
      "mean_anomaly_deg": 175.4983,
      "mean_motion_rev_day": 15.26647389
    }
  ]
}